SAUDISAT 5A             
1 43831U 18102A   26188.52935181  .00003907  00000+0  14431-3 0  9994
2 43831  97.3055 249.7195 0011001  67.6627 292.5778 15.28267659418783
SAUDISAT 5B             
1 43833U 18102C   26188.54484817  .00003540  00000+0  13002-3 0  9999
2 43833  97.3164 252.8414 0011753  69.1598 291.0899 15.28513491418903
GAOFEN-10R              
1 44622U 19066A   26188.52979723  .00000956  00000+0  12424-3 0  9994
2 44622  98.0505 142.2577 0007139  72.8410 287.3585 14.83045642365398
CARTOSAT-3              
1 44804U 19081A   26188.50916001  .00006169  00000+0  29484-3 0  9997
2 44804  97.4292 250.0488 0013358  85.1061 275.1698 15.19294202366551
GAOFEN-12 01            
1 44819U 19082A   26188.49115411  .00000304  00000+0  46422-4 0  9995
2 44819  97.8105 194.3349 0001388  52.8113 307.3226 14.80475242357095
CSG-1                   
1 44873U 19092A   26188.50704639  .00000355  00000+0  51128-4 0  9999
2 44873  97.8893  11.8157 0001485  90.6999 269.4384 14.82146857354481
NEMO-HD                 
1 46277U 20061F   26188.46941469  .00007684  00000+0  16470-3 0  9998
2 46277  97.1906 250.2216 0001218  78.4123 281.7262 15.45024000325116
SENTINEL-6A             
1 46984U 20086A   26188.15099898 -.00000046  00000+0  66482-4 0  9991
2 46984  66.0416  93.5889 0007835 270.0365  89.9753 12.80930149262888
CAS500-1                
1 47932U 21022A   26188.53442383  .00005130  00000+0  24040-3 0  9990
2 47932  97.3873  83.3735 0004319 195.6403 164.4699 15.20125013293854
GAOFEN-12 02            
1 48079U 21026A   26188.50439769  .00000293  00000+0  45430-4 0  9990
2 48079  97.9929 186.6025 0005299 152.9238 207.2251 14.80312031284767
PLEIADES NEO 3          
1 48268U 21034A   26188.51288980 -.00000362  00000+0 -39454-4 0  9995
2 48268  97.8935 262.9874 0001338  92.6333 267.5033 14.81672867280668
PLEIADES NEO 4          
1 49070U 21073E   26188.41157615 -.00000002  00000+0  63105-5 0  9990
2 49070  97.8931 262.8836 0001293  91.3078 268.8283 14.81677754264365
LANDSAT 9               
1 49260U 21088A   26187.69877270  .00000321  00000+0  81232-4 0  9995
2 49260  98.2273 257.6394 0001167  89.6982 270.4350 14.57111056253841
CSG-2                   
1 51444U 22008A   26188.54076157  .00000633  00000+0  86096-4 0  9994
2 51444  97.8895  11.8432 0001554  86.9167 273.2224 14.82160156239603
GAOFEN-12 03            
1 52912U 22069A   26188.53783367  .00000602  00000+0  86152-4 0  9998
2 52912  97.8249  75.8926 0002516  81.0628 279.0869 14.80068590217626
SWOT                    
1 54754U 22173A   26188.49561818 -.00000020  00000+0 -11807-4 0  9991
2 54754  77.6104   7.8927 0000285  77.6542 282.4642 14.00171864181999
GAOFEN-12 04            
1 57654U 23123A   26188.55599028  .00000775  00000+0  10987-3 0  9992
2 57654  97.9108 106.2715 0003825  65.8143 294.3468 14.79765479155646
PARS 1                  
1 59065U 24039Q   26188.50963160  .00008010  00000+0  16485-3 0  9993
2 59065  97.4835 170.0762 0010698  51.7836 308.4374 15.46170233131781
RESURS-P 4              
1 59371U 24061A   26188.50878817  .00002365  00000+0  78409-4 0  9994
2 59371  97.2755 136.0554 0003203 100.9776 259.1826 15.32249751126870
LEGION 1                
1 59625U 24081A   26188.48071654  .00002839  00000+0  14780-3 0  9996
2 59625  97.5009 266.1223 0007827 301.7323  58.3147 15.16809987120616
LEGION 2                
1 59626U 24081B   26188.51098975  .00002830  00000+0  14739-3 0  9991
2 59626  97.5010 266.2492 0009866 263.9048  96.1061 15.16788255120626
ALOS-4 (DAICHI-4)       
1 60182U 24123A   26188.51601921  .00001369  00000+0  19013-3 0  9994
2 60182  97.9220 285.4001 0001615  98.1164 262.0231 14.79467049108882
LEGION 3                
1 60452U 24146A   26188.49323563  .00002014  00000+0  11778-3 0  9997
2 60452  45.0018 281.6706 0008815 293.7294  66.2659 15.15623652105102
LEGION 4                
1 60453U 24146B   26188.49397572  .00002822  00000+0  15700-3 0  9995
2 60453  45.0022  13.5453 0011538  63.5933 296.6129 15.16200191103950
SENTINEL-2C             
1 60989U 24157A   26188.17254307  .00000080  00000+0  47103-4 0  9991
2 60989  98.5685 262.6713 0000939  95.7763 264.3527 14.30814111 95849
IONOSFERA-M 1           
1 61735U 24199A   26188.51795919  .00000027  00000+0  31661-4 0  9997
2 61735  98.7147  61.4731 0002212  82.8258 277.3171 14.22757984130597
IONOSFERA-M 2           
1 61736U 24199B   26188.48187995  .00000031  00000+0  33573-4 0  9992
2 61736  98.7146  61.3479 0000319  82.4034 277.7180 14.22761391133717
PRSC-EO1                
1 62725U 25012A   26188.49890538  .00004721  00000+0  23728-3 0  9991
2 62725  97.4214 260.5613 0006244 173.2024 186.9296 15.17716414 81275
BIOMASS                 
1 63772U 25090A   26187.94542681  .00000945  00000+0  17510-3 0  9998
2 63772  98.0749  14.9708 0001427  92.8729 267.2639 14.67534779 63584
GOSAT-GW (IBUKI GW)     
1 64694U 25141A   26188.50822422  .00000637  00000+0  12073-3 0  9993
2 64694  98.0566 125.4951 0001415  84.2238 275.9128 14.67554603 54824
IONOSFERA-M 3           
1 64876U 25155A   26188.51775502  .00000040  00000+0  37721-4 0  9993
2 64876  98.6035 149.9120 0002031 123.8900 236.2471 14.21489905 49291
