OBJECT_NAME,OBJECT_ID,EPOCH,MEAN_MOTION,ECCENTRICITY,INCLINATION,RA_OF_ASC_NODE,ARG_OF_PERICENTER,MEAN_ANOMALY,EPHEMERIS_TYPE,CLASSIFICATION_TYPE,NORAD_CAT_ID,ELEMENT_SET_NO,REV_AT_EPOCH,BSTAR,MEAN_MOTION_DOT,MEAN_MOTION_DDOT
SAUDISAT 5A,2018-102A,2026-07-07T12:42:15.996384,15.28267659,.0011001,97.3055,249.7195,67.6627,292.5778,0,U,43831,999,41878,.14431E-3,.3907E-4,0
SAUDISAT 5B,2018-102C,2026-07-07T13:04:34.881888,15.28513491,.0011753,97.3164,252.8414,69.1598,291.0899,0,U,43833,999,41890,.13002E-3,.354E-4,0
GAOFEN-10R,2019-066A,2026-07-07T12:42:54.480672,14.83045642,.0007139,98.0505,142.2577,72.8410,287.3585,0,U,44622,999,36539,.12424E-3,.956E-5,0
CARTOSAT-3,2019-081A,2026-07-07T12:13:11.424864,15.19294202,.0013358,97.4292,250.0488,85.1061,275.1698,0,U,44804,999,36655,.29484E-3,.6169E-4,0
GAOFEN-12 01,2019-082A,2026-07-07T11:47:15.715104,14.80475242,.0001388,97.8105,194.3349,52.8113,307.3226,0,U,44819,999,35709,.46422E-4,.304E-5,0
CSG-1,2019-092A,2026-07-07T12:10:08.808096,14.82146857,.0001485,97.8893,11.8157,90.6999,269.4384,0,U,44873,999,35448,.51128E-4,.355E-5,0
NEMO-HD,2020-061F,2026-07-07T11:15:57.429216,15.45024000,.0001218,97.1906,250.2216,78.4123,281.7262,0,U,46277,999,32511,.1647E-3,.7684E-4,0
SENTINEL-6A,2020-086A,2026-07-07T03:37:26.311872,12.80930149,.0007835,66.0416,93.5889,270.0365,89.9753,0,U,46984,999,26288,.66482E-4,-.46E-6,0
CAS500-1,2021-022A,2026-07-07T12:49:34.218912,15.20125013,.0004319,97.3873,83.3735,195.6403,164.4699,0,U,47932,999,29385,.2404E-3,.513E-4,0
GAOFEN-12 02,2021-026A,2026-07-07T12:06:19.960416,14.80312031,.0005299,97.9929,186.6025,152.9238,207.2251,0,U,48079,999,28476,.4543E-4,.293E-5,0
PLEIADES NEO 3,2021-034A,2026-07-07T12:18:33.678720,14.81672867,.0001338,97.8935,262.9874,92.6333,267.5033,0,U,48268,999,28066,-.39454E-4,-.362E-5,0
PLEIADES NEO 4,2021-073E,2026-07-07T09:52:40.179360,14.81677754,.0001293,97.8931,262.8836,91.3078,268.8283,0,U,49070,999,26436,.63105E-5,-.2E-7,0
LANDSAT 9,2021-088A,2026-07-06T16:46:13.961280,14.57111056,.0001167,98.2273,257.6394,89.6982,270.4350,0,U,49260,999,25384,.81232E-4,.321E-5,0
CSG-2,2022-008A,2026-07-07T12:58:41.799648,14.82160156,.0001554,97.8895,11.8432,86.9167,273.2224,0,U,51444,999,23960,.86096E-4,.633E-5,0
GAOFEN-12 03,2022-069A,2026-07-07T12:54:28.829088,14.80068590,.0002516,97.8249,75.8926,81.0628,279.0869,0,U,52912,999,21762,.86152E-4,.602E-5,0
SWOT,2022-173A,2026-07-07T11:53:41.410752,14.00171864,.0000285,77.6104,7.8927,77.6542,282.4642,0,U,54754,999,18199,-.11807E-4,-.2E-6,0
GAOFEN-12 04,2023-123A,2026-07-07T13:20:37.560192,14.79765479,.0003825,97.9108,106.2715,65.8143,294.3468,0,U,57654,999,15564,.10987E-3,.775E-5,0
PARS 1,2024-039Q,2026-07-07T12:13:52.170240,15.46170233,.0010698,97.4835,170.0762,51.7836,308.4374,0,U,59065,999,13178,.16485E-3,.801E-4,0
RESURS-P 4,2024-061A,2026-07-07T12:12:39.297888,15.32249751,.0003203,97.2755,136.0554,100.9776,259.1826,0,U,59371,999,12687,.78409E-4,.2365E-4,0
LEGION 1,2024-081A,2026-07-07T11:32:13.909056,15.16809987,.0007827,97.5009,266.1223,301.7323,58.3147,0,U,59625,999,12061,.1478E-3,.2839E-4,0
LEGION 2,2024-081B,2026-07-07T12:15:49.514400,15.16788255,.0009866,97.5010,266.2492,263.9048,96.1061,0,U,59626,999,12062,.14739E-3,.283E-4,0
ALOS-4 (DAICHI-4),2024-123A,2026-07-07T12:23:04.059744,14.79467049,.0001615,97.9220,285.4001,98.1164,262.0231,0,U,60182,999,10888,.19013E-3,.1369E-4,0
LEGION 3,2024-146A,2026-07-07T11:50:15.558432,15.15623652,.0008815,45.0018,281.6706,293.7294,66.2659,0,U,60452,999,10510,.11778E-3,.2014E-4,0
LEGION 4,2024-146B,2026-07-07T11:51:19.502208,15.16200191,.0011538,45.0022,13.5453,63.5933,296.6129,0,U,60453,999,10395,.157E-3,.2822E-4,0
SENTINEL-2C,2024-157A,2026-07-07T04:08:27.721248,14.30814111,.0000939,98.5685,262.6713,95.7763,264.3527,0,U,60989,999,9584,.47103E-4,.8E-6,0
IONOSFERA-M 1,2024-199A,2026-07-07T12:25:51.674016,14.22757984,.0002212,98.7147,61.4731,82.8258,277.3171,0,U,61735,999,13059,.31661E-4,.27E-6,0
IONOSFERA-M 2,2024-199B,2026-07-07T11:33:54.427680,14.22761391,.0000319,98.7146,61.3479,82.4034,277.7180,0,U,61736,999,13371,.33573E-4,.31E-6,0
PRSC-EO1,2025-012A,2026-07-07T11:58:25.424832,15.17716414,.0006244,97.4214,260.5613,173.2024,186.9296,0,U,62725,999,8127,.23728E-3,.4721E-4,0
BIOMASS,2025-090A,2026-07-06T22:41:24.876384,14.67534779,.0001427,98.0749,14.9708,92.8729,267.2639,0,U,63772,999,6358,.1751E-3,.945E-5,0
GOSAT-GW (IBUKI GW),2025-141A,2026-07-07T12:11:50.572608,14.67554603,.0001415,98.0566,125.4951,84.2238,275.9128,0,U,64694,999,5482,.12073E-3,.637E-5,0
IONOSFERA-M 3,2025-155A,2026-07-07T12:25:34.033728,14.21489905,.0002031,98.6035,149.9120,123.8900,236.2471,0,U,64876,999,4929,.37721E-4,.4E-6,0
